<?xml version="1.0" encoding="UTF-8"?>
<kml xmlns="http://www.opengis.net/kml/2.2">
  <Document>
    <name>Custom</name>
    <Style id="poly-000000-1200-77-nodesc-normal">
      <LineStyle>
        <color>ff000000</color>
        <width>1.2</width>
      </LineStyle>
      <PolyStyle>
        <color>4d000000</color>
        <fill>1</fill>
        <outline>1</outline>
      </PolyStyle>
      <BalloonStyle>
        <text><![CDATA[<h3>$[name]</h3>]]></text>
      </BalloonStyle>
    </Style>
    <Style id="poly-000000-1200-77-nodesc-highlight">
      <LineStyle>
        <color>ff000000</color>
        <width>1.8</width>
      </LineStyle>
      <PolyStyle>
        <color>4d000000</color>
        <fill>1</fill>
        <outline>1</outline>
      </PolyStyle>
      <BalloonStyle>
        <text><![CDATA[<h3>$[name]</h3>]]></text>
      </BalloonStyle>
    </Style>
    <StyleMap id="poly-000000-1200-77-nodesc">
      <Pair>
        <key>normal</key>
        <styleUrl>#poly-000000-1200-77-nodesc-normal</styleUrl>
      </Pair>
      <Pair>
        <key>highlight</key>
        <styleUrl>#poly-000000-1200-77-nodesc-highlight</styleUrl>
      </Pair>
    </StyleMap>
    <Placemark>
      <name>Al Thanyah</name>
      <styleUrl>#poly-000000-1200-77-nodesc</styleUrl>
      <Polygon>
        <outerBoundaryIs>
          <LinearRing>
            <tessellate>1</tessellate>
            <coordinates>
              55.181849,25.097278,0
              55.176856,25.092025,0
              55.1738572,25.0872802,0
              55.172796,25.083808,0
              55.174514,25.081163,0
              55.178721,25.079457,0
              55.195616,25.066054,0
              55.20711,25.079298,0
              55.1944995,25.0866583,0
              55.1872039,25.0912834,0
              55.181849,25.097278,0
            </coordinates>
          </LinearRing>
        </outerBoundaryIs>
      </Polygon>
    </Placemark>
    <Placemark>
      <name>Al Mizhar 3</name>
      <styleUrl>#poly-000000-1200-77-nodesc</styleUrl>
      <Polygon>
        <outerBoundaryIs>
          <LinearRing>
            <tessellate>1</tessellate>
            <coordinates>
              55.460139,25.272248,0
              55.457691,25.266878,0
              55.455901,25.257552,0
              55.469405,25.255261,0
              55.472201,25.267719,0
              55.460139,25.272248,0
            </coordinates>
          </LinearRing>
        </outerBoundaryIs>
      </Polygon>
    </Placemark>
    <Placemark>
      <name>Al Quoz</name>
      <styleUrl>#poly-000000-1200-77-nodesc</styleUrl>
      <Polygon>
        <outerBoundaryIs>
          <LinearRing>
            <tessellate>1</tessellate>
            <coordinates>
              55.2297594,25.1048538,0
              55.2596714,25.1386001,0
              55.2610447,25.1475354,0
              55.2610447,25.159966,0
              55.262418,25.1647826,0
              55.2666237,25.168589,0
              55.2496292,25.1796194,0
              55.2303173,25.158723,0
              55.2206185,25.1436506,0
              55.2140953,25.1327724,0
              55.2111771,25.1291202,0
              55.201929,25.123004,0
              55.2297594,25.1048538,0
            </coordinates>
          </LinearRing>
        </outerBoundaryIs>
      </Polygon>
    </Placemark>
    <Placemark>
      <name>Warsan</name>
      <styleUrl>#poly-000000-1200-77-nodesc</styleUrl>
      <Polygon>
        <outerBoundaryIs>
          <LinearRing>
            <tessellate>1</tessellate>
            <coordinates>
              55.427763,25.174156,0
              55.42581,25.165012,0
              55.4288809,25.1645533,0
              55.4345457,25.1633491,0
              55.439438,25.1627277,0
              55.444907,25.161216,0
              55.449385,25.159177,0
              55.45205,25.157368,0
              55.426931,25.138833,0
              55.4288809,25.1373218,0
              55.4311125,25.1347576,0
              55.4317133,25.1317271,0
              55.4295675,25.127531,0
              55.427394,25.124154,0
              55.426866,25.121709,0
              55.4276792,25.1196822,0
              55.431673,25.114588,0
              55.479521,25.1506858,0
              55.495159,25.16448,0
              55.474835,25.165406,0
              55.427763,25.174156,0
            </coordinates>
          </LinearRing>
        </outerBoundaryIs>
      </Polygon>
    </Placemark>
    <Placemark>
      <name>Al Bada</name>
      <styleUrl>#poly-000000-1200-77-nodesc</styleUrl>
      <Polygon>
        <outerBoundaryIs>
          <LinearRing>
            <tessellate>1</tessellate>
            <coordinates>
              55.272678,25.23898,0
              55.2697404,25.2332178,0
              55.2657922,25.2251429,0
              55.2642472,25.2228523,0
              55.257166,25.211961,0
              55.268954,25.205745,0
              55.275385,25.215318,0
              55.273977,25.2162,0
              55.273171,25.217108,0
              55.268524,25.220009,0
              55.278928,25.233705,0
              55.278231,25.234237,0
              55.278834,25.235115,0
              55.272678,25.23898,0
            </coordinates>
          </LinearRing>
        </outerBoundaryIs>
      </Polygon>
    </Placemark>
    <Placemark>
      <name>Al Twar 4</name>
      <styleUrl>#poly-000000-1200-77-nodesc</styleUrl>
      <Polygon>
        <outerBoundaryIs>
          <LinearRing>
            <tessellate>1</tessellate>
            <coordinates>
              55.395964,25.271129,0
              55.395401,25.269689,0
              55.3944508,25.2678566,0
              55.389614,25.261209,0
              55.390803,25.2604438,0
              55.397482,25.25651,0
              55.4025618,25.2534187,0
              55.405797,25.25234,0
              55.4072395,25.2570284,0
              55.4083983,25.2609096,0
              55.409775,25.263454,0
              55.4061237,25.2660714,0
              55.403138,25.267015,0
              55.395964,25.271129,0
            </coordinates>
          </LinearRing>
        </outerBoundaryIs>
      </Polygon>
    </Placemark>
    <Placemark>
      <name>Jabal Ali Second</name>
      <styleUrl>#poly-000000-1200-77-nodesc</styleUrl>
      <Polygon>
        <outerBoundaryIs>
          <LinearRing>
            <tessellate>1</tessellate>
            <coordinates>
              55.123669,25.071482,0
              55.097811,25.044196,0
              55.10796,25.037068,0
              55.1315399,25.0645984,0
              55.129952,25.0666976,0
              55.123669,25.071482,0
            </coordinates>
          </LinearRing>
        </outerBoundaryIs>
      </Polygon>
    </Placemark>
    <Placemark>
      <name>Nad Al Sheba 2</name>
      <styleUrl>#poly-000000-1200-77-nodesc</styleUrl>
      <Polygon>
        <outerBoundaryIs>
          <LinearRing>
            <tessellate>1</tessellate>
            <coordinates>
              55.325605,25.169894,0
              55.3468443,25.1422696,0
              55.3620363,25.15136,0
              55.365953,25.168056,0
              55.361712,25.168838,0
              55.325605,25.169894,0
            </coordinates>
          </LinearRing>
        </outerBoundaryIs>
      </Polygon>
    </Placemark>
    <Placemark>
      <name>Nad Al Sheba 3</name>
      <styleUrl>#poly-000000-1200-77-nodesc</styleUrl>
      <Polygon>
        <outerBoundaryIs>
          <LinearRing>
            <tessellate>1</tessellate>
            <coordinates>
              55.365953,25.168056,0
              55.3620363,25.15136,0
              55.3678728,25.1442897,0
              55.381956,25.138729,0
              55.391097,25.160611,0
              55.38123,25.164778,0
              55.365953,25.168056,0
            </coordinates>
          </LinearRing>
        </outerBoundaryIs>
      </Polygon>
    </Placemark>
    <Placemark>
      <name>Nad Al Sheba 4</name>
      <styleUrl>#poly-000000-1200-77-nodesc</styleUrl>
      <Polygon>
        <outerBoundaryIs>
          <LinearRing>
            <tessellate>1</tessellate>
            <coordinates>
              55.364947,25.119995,0
              55.373113,25.126284,0
              55.378376,25.132402,0
              55.381956,25.138729,0
              55.3678728,25.1442897,0
              55.3620363,25.15136,0
              55.3468443,25.1422696,0
              55.364947,25.119995,0
            </coordinates>
          </LinearRing>
        </outerBoundaryIs>
      </Polygon>
    </Placemark>
  </Document>
</kml>
